$$SOE
2461302.500000000, A.D. 2026-Sep-19 00:00:00.0000, -7.119983467671214E+08, -3.806628480791916E+08, -1.394317381331826E+08,
2461309.500000000, A.D. 2026-Sep-26 00:00:00.0000, -7.093163227775881E+08, -3.876397622449477E+08, -1.400174514804849E+08,
2461316.500000000, A.D. 2026-Oct-03 00:00:00.0000, -7.065718953202041E+08, -3.945826028705518E+08, -1.405908470119222E+08,
2461323.500000000, A.D. 2026-Oct-10 00:00:00.0000, -7.037655418765066E+08, -4.014908930693388E+08, -1.411519211050873E+08,
2461330.500000000, A.D. 2026-Oct-17 00:00:00.0000, -7.008977407887577E+08, -4.083641624042407E+08, -1.417006711513187E+08,
2461337.500000000, A.D. 2026-Oct-24 00:00:00.0000, -6.979689712560357E+08, -4.152019468581693E+08, -1.422370955422101E+08,
2461344.500000000, A.D. 2026-Oct-31 00:00:00.0000, -6.949797132438580E+08, -4.220037889670843E+08, -1.427611936783631E+08,
2461351.500000000, A.D. 2026-Nov-07 00:00:00.0000, -6.919304469682539E+08, -4.287692380416587E+08, -1.432729660252626E+08,
2461358.500000000, A.D. 2026-Nov-14 00:00:00.0000, -6.888216517533474E+08, -4.354978495901112E+08, -1.437724141619515E+08,
2461365.500000000, A.D. 2026-Nov-21 00:00:00.0000, -6.856538060740781E+08, -4.421891832603290E+08, -1.442595406003549E+08,
2461372.500000000, A.D. 2026-Nov-28 00:00:00.0000, -6.824273897820666E+08, -4.488428023094596E+08, -1.447343485292879E+08,
2461379.500000000, A.D. 2026-Dec-05 00:00:00.0000, -6.791428848952026E+08, -4.554582752574483E+08, -1.451968418685386E+08,
2461386.500000000, A.D. 2026-Dec-12 00:00:00.0000, -6.758007747861147E+08, -4.620351766135089E+08, -1.456470253936321E+08,
2461393.500000000, A.D. 2026-Dec-19 00:00:00.0000, -6.724015436566929E+08, -4.685730866690339E+08, -1.460849047573564E+08,
2461400.500000000, A.D. 2026-Dec-26 00:00:00.0000, -6.689456764409885E+08, -4.750715912250507E+08, -1.465104864656923E+08,
2461407.500000000, A.D. 2027-Jan-02 00:00:00.0000, -6.654336588608879E+08, -4.815302814453389E+08, -1.469237778488886E+08,
2461414.500000000, A.D. 2027-Jan-09 00:00:00.0000, -6.618659775182405E+08, -4.879487538152947E+08, -1.473247870366699E+08,
2461421.500000000, A.D. 2027-Jan-16 00:00:00.0000, -6.582431199892004E+08, -4.943266101979855E+08, -1.477135229400441E+08,
2461428.500000000, A.D. 2027-Jan-23 00:00:00.0000, -6.545655748762429E+08, -5.006634580272508E+08, -1.480899952471619E+08,
2461435.500000000, A.D. 2027-Jan-30 00:00:00.0000, -6.508338316317489E+08, -5.069589106857917E+08, -1.484542144543857E+08,
2461442.500000000, A.D. 2027-Feb-06 00:00:00.0000, -6.470483797300731E+08, -5.132125877283306E+08, -1.488061919438109E+08,
2461449.500000000, A.D. 2027-Feb-13 00:00:00.0000, -6.432097076498885E+08, -5.194241137301785E+08, -1.491459399654267E+08,
2461456.500000000, A.D. 2027-Feb-20 00:00:00.0000, -6.393183040318227E+08, -5.255931165522420E+08, -1.494734713718752E+08,
2461463.500000000, A.D. 2027-Feb-27 00:00:00.0000, -6.353746596163036E+08, -5.317192282362716E+08, -1.497887994966628E+08,
2461470.500000000, A.D. 2027-Mar-06 00:00:00.0000, -6.313792669441421E+08, -5.378020866078938E+08, -1.500919382957475E+08,
2461477.500000000, A.D. 2027-Mar-13 00:00:00.0000, -6.273326194203829E+08, -5.438413355379602E+08, -1.503829024384249E+08,
2461484.500000000, A.D. 2027-Mar-20 00:00:00.0000, -6.232352108708870E+08, -5.498366246968648E+08, -1.506617073122997E+08,
2461491.500000000, A.D. 2027-Mar-27 00:00:00.0000, -6.190875353896368E+08, -5.557876093508575E+08, -1.509283690058931E+08,
2461498.500000000, A.D. 2027-Apr-03 00:00:00.0000, -6.148900872739033E+08, -5.616939502481750E+08, -1.511829042915464E+08,
2461505.500000000, A.D. 2027-Apr-10 00:00:00.0000, -6.106433609861014E+08, -5.675553135719824E+08, -1.514253306124611E+08,
2461512.500000000, A.D. 2027-Apr-17 00:00:00.0000, -6.063478511203189E+08, -5.733713709744276E+08, -1.516556660771302E+08,
2461519.500000000, A.D. 2027-Apr-24 00:00:00.0000, -6.020040522943269E+08, -5.791417997539411E+08, -1.518739294735267E+08,
2461526.500000000, A.D. 2027-May-01 00:00:00.0000, -5.976124586674362E+08, -5.848662831479130E+08, -1.520801403282432E+08,
2461533.500000000, A.D. 2027-May-08 00:00:00.0000, -5.931735627767540E+08, -5.905445099922850E+08, -1.522743189775687E+08,
2461540.500000000, A.D. 2027-May-15 00:00:00.0000, -5.886878551886040E+08, -5.961761727945396E+08, -1.524564864352298E+08,
2461547.500000000, A.D. 2027-May-22 00:00:00.0000, -5.841558265287981E+08, -6.017609668116901E+08, -1.526266641250959E+08,
2461554.500000000, A.D. 2027-May-29 00:00:00.0000, -5.795779685358166E+08, -6.072985916016614E+08, -1.527848739066060E+08,
2461561.500000000, A.D. 2027-Jun-05 00:00:00.0000, -5.749547732521369E+08, -6.127887519163811E+08, -1.529311382180645E+08,
2461568.500000000, A.D. 2027-Jun-12 00:00:00.0000, -5.702867323612303E+08, -6.182311575047240E+08, -1.530654801182635E+08,
2461575.500000000, A.D. 2027-Jun-19 00:00:00.0000, -5.655743370011653E+08, -6.236255227602797E+08, -1.531879232723153E+08,
2461582.500000000, A.D. 2027-Jun-26 00:00:00.0000, -5.608180777753438E+08, -6.289715664752829E+08, -1.532984919284920E+08,
2461589.500000000, A.D. 2027-Jul-03 00:00:00.0000, -5.560184448282096E+08, -6.342690116924539E+08, -1.533972108973140E+08,
2461596.500000000, A.D. 2027-Jul-10 00:00:00.0000, -5.511759279490966E+08, -6.395175856460687E+08, -1.534841055353345E+08,
2461603.500000000, A.D. 2027-Jul-17 00:00:00.0000, -5.462910166678848E+08, -6.447170198311543E+08, -1.535592017398883E+08,
2461610.500000000, A.D. 2027-Jul-24 00:00:00.0000, -5.413642001860542E+08, -6.498670502636254E+08, -1.536225259740489E+08,
2461617.500000000, A.D. 2027-Jul-31 00:00:00.0000, -5.363959667317222E+08, -6.549674176958462E+08, -1.536741053400519E+08,
2461624.500000000, A.D. 2027-Aug-07 00:00:00.0000, -5.313868025393821E+08, -6.600178666358547E+08, -1.537139675884579E+08,
2461631.500000000, A.D. 2027-Aug-14 00:00:00.0000, -5.263371927553700E+08, -6.650181434235022E+08, -1.537421408725708E+08,
2461638.500000000, A.D. 2027-Aug-21 00:00:00.0000, -5.212476236507537E+08, -6.699679967277396E+08, -1.537586535797116E+08,
2461645.500000000, A.D. 2027-Aug-28 00:00:00.0000, -5.161185827106370E+08, -6.748671792619834E+08, -1.537635344557877E+08,
2461652.500000000, A.D. 2027-Sep-04 00:00:00.0000, -5.109505577811273E+08, -6.797154482152807E+08, -1.537568127104674E+08,
2461659.500000000, A.D. 2027-Sep-11 00:00:00.0000, -5.057440366692919E+08, -6.845125650604943E+08, -1.537385180292082E+08,
2461666.500000000, A.D. 2027-Sep-18 00:00:00.0000, -5.004995070628778E+08, -6.892582953895376E+08, -1.537086805577129E+08,
2461673.500000000, A.D. 2027-Sep-25 00:00:00.0000, -4.952174565409042E+08, -6.939524088530283E+08, -1.536673308864017E+08,
2461680.500000000, A.D. 2027-Oct-02 00:00:00.0000, -4.898983726000411E+08, -6.985946791764406E+08, -1.536145000397877E+08,
2461687.500000000, A.D. 2027-Oct-09 00:00:00.0000, -4.845427426742359E+08, -7.031848842568264E+08, -1.535502194734224E+08,
2461694.500000000, A.D. 2027-Oct-16 00:00:00.0000, -4.791510540842817E+08, -7.077228063945202E+08, -1.534745210888932E+08,
2461701.500000000, A.D. 2027-Oct-23 00:00:00.0000, -4.737237936572629E+08, -7.122082326650931E+08, -1.533874372913385E+08,
2461708.500000000, A.D. 2027-Oct-30 00:00:00.0000, -4.682614466409712E+08, -7.166409548208748E+08, -1.532890010740990E+08,
2461715.500000000, A.D. 2027-Nov-06 00:00:00.0000, -4.627644960765473E+08, -7.210207675935957E+08, -1.531792459316898E+08,
2461722.500000000, A.D. 2027-Nov-13 00:00:00.0000, -4.572334246145891E+08, -7.253474674741455E+08, -1.530582055887369E+08,
2461729.500000000, A.D. 2027-Nov-20 00:00:00.0000, -4.516687158727779E+08, -7.296208541552993E+08, -1.529259139897292E+08,
2461736.500000000, A.D. 2027-Nov-27 00:00:00.0000, -4.460708537175395E+08, -7.338407316730013E+08, -1.527824054557132E+08,
2461743.500000000, A.D. 2027-Dec-04 00:00:00.0000, -4.404403214933954E+08, -7.380069083321861E+08, -1.526277147476264E+08,
2461750.500000000, A.D. 2027-Dec-11 00:00:00.0000, -4.347776017505940E+08, -7.421191963809485E+08, -1.524618770644710E+08,
2461757.500000000, A.D. 2027-Dec-18 00:00:00.0000, -4.290831761960151E+08, -7.461774117720139E+08, -1.522849280291694E+08,
2461764.500000000, A.D. 2027-Dec-25 00:00:00.0000, -4.233575257153183E+08, -7.501813740135306E+08, -1.520969036761113E+08,
2461771.500000000, A.D. 2028-Jan-01 00:00:00.0000, -4.176011304248855E+08, -7.541309060944984E+08, -1.518978404428930E+08,
$$EOE